GLOBALSTAR M067         
1 32263U 07048A   24194.52000628 -.00000040  00000+0  42383-3 0  9995
2 32263  51.9743 309.8105 0000542  33.2340  48.6691 12.40649111767327
GLOBALSTAR M070         
1 32264U 07048B   24194.47172422 -.00000076  00000+0  15386-3 0  9994
2 32264  51.9755  83.3964 0001035  64.2492 108.6592 12.62295573770760
GLOBALSTAR M066         
1 32265U 07048C   24194.55698752 -.00000092  00000+0  66321-4 0  9997
2 32265  51.9690 305.0992 0000778 159.5229 213.7515 12.62264861773046
GLOBALSTAR M068         
1 32266U 07048D   24194.53620181 -.00000058  00000+0  25360-3 0  9996
2 32266  51.9875 257.6040 0001274 122.5460  17.6919 12.62794140774641
GLOBALSTAR M079         
1 37188U 10054A   24193.67950896 -.00000082  00000+0  12103-3 0  9996
2 37188  52.0042  96.3449 0000483  32.1266   1.6361 12.62271611633459
GLOBALSTAR M074         
1 37189U 10054B   24194.44909071 -.00000078  00000+0  14350-3 0  9993
2 37189  52.0020  93.3788 0000681  54.6662 116.9104 12.62270178634158
GLOBALSTAR M076         
1 37190U 10054C   24194.47519156 -.00000090  00000+0  77681-4 0  9990
2 37190  52.0034  93.4387 0000826  22.3351 148.4737 12.62262608633878
GLOBALSTAR M077         
1 37191U 10054D   24194.58839109 -.00000093  00000+0  59498-4 0  9995
2 37191  52.0082  49.8524 0000858  72.7899 312.7552 12.62261270634260
